#aV2011  6 25  0  0   .00000000      96 DD+AD WGS84 FIT  NGA
## 1641 518400.00000000   900.00000000 55737  .0000000000000
+   32     1  2  3  4  5  6  7  8  9 10 11 12 13 14 15 16 17
+         18 19 20 21 22 23 24 25 26 27 28 29 30 31 32  0  0
+          0  0  0  0  0  0  0  0  0  0  0  0  0  0  0  0  0
+          0  0  0  0  0  0  0  0  0  0  0  0  0  0  0  0  0
+          0  0  0  0  0  0  0  0  0  0  0  0  0  0  0  0  0
++         0  0  0  0  0  0  0  0  0  0  0  0  0  0  0  0  0
++         0  0  0  0  0  0  0  0  0  0  0  0  0  0  0  0  0
++         0  0  0  0  0  0  0  0  0  0  0  0  0  0  0  0  0
++         0  0  0  0  0  0  0  0  0  0  0  0  0  0  0  0  0
++         0  0  0  0  0  0  0  0  0  0  0  0  0  0  0  0  0
%c cc cc ccc ccc cccc cccc cccc cccc ccccc ccccc ccccc ccccc
%c cc cc ccc ccc cccc cccc cccc cccc ccccc ccccc ccccc ccccc
%f  0.0000000  0.000000000  0.00000000000  0.000000000000000
%f  0.0000000  0.000000000  0.00000000000  0.000000000000000
%i    0    0    0    0      0      0      0      0         0
%i    0    0    0    0      0      0      0      0         0
/*      NGA, ST. LOUIS,MO.                                  
/*   EPHEMERIS COMPUTED FROM  3 DAYS OF DATA                
/* CCCCCCCCCCCCCCCCCCCCCCCCCCCCCCCCCCCCCCCCCCCCCCCCCCCCCCCCC
/* CCCCCCCCCCCCCCCCCCCCCCCCCCCCCCCCCCCCCCCCCCCCCCCCCCCCCCCCC
*  2011  6 25 17 30   .00000000                                                 
P  1  13979.743318  21733.238590   5866.657051     93.635007                    
V  1    503.977816   8409.928020 -30435.106417       .019906                    
P  2  -4597.145331  15076.938726  21412.681109    343.523279                    
V  2 -26556.553149  -5749.315849  -2147.241292       .018970                    
P  3   8022.170359 -23558.422624  -9238.395367    733.521889                    
V  3   9422.239099  -7207.582954  28158.665918       .051891                    
P  4 -19556.621089   7869.501722  16146.925815    154.303171                    
V  4 -19888.923825  -6553.716327 -20283.610890       .108119                    
P  5    -60.586886  24294.968620  10595.285005   -180.110869                    
V  5  -6745.219369 -12032.707229  27619.952301      -.055920                    
P  6  13130.889112 -22289.639443  -5277.140796    127.644890                    
V  6   7274.424256  -3058.408688  30375.747514      -.826986                    
P  7 -26076.277438  -5640.486715   -401.394219     15.590584                    
V  7     -8.136464  -2254.944741  31903.418319       .013671                    
P  8 -24839.982404   -827.417351 -10095.723986      8.311415                    
V  8 -11752.167296  -4765.869687  28692.279091       .001183                    
P  9  15186.232262  14445.649364 -16866.110898     88.716197                    
V  9 -20169.927362  -2738.218015 -21220.116699       .025545                    
P 10 -11686.189747  11913.170545  20364.680073     -4.762701                    
V 10  -8686.995809 -25041.890255   9931.082436      -.012812                    
P 11 -13919.186571 -14166.426808 -18102.114047   -162.610825                    
V 11  22423.632651  -3177.243012 -14677.296007      -.032663                    
P 12  11884.428105  22777.049988   7113.321321      4.904191                    
V 12    598.402542   9169.625363 -30255.765991       .025831                    
P 13 -16908.021748  -2379.672724  20219.112307    263.958058                    
V 13  18399.794221 -18249.232495  13077.782138      -.016753                    
P 14  21236.871332 -13869.450825  -7461.162715    158.081949                    
V 14  -5422.820908   8333.929612 -30416.281631       .021682                    
P 15   3064.461243  17702.733233 -19502.338062   -119.469293                    
V 15 -17447.051562  17776.821094  13552.964743       .022285                    
P 16    837.950599 -24072.605887  10860.295898   -181.364355                    
V 16   5901.139621  12721.061407  28083.191172      -.024810                    
P 17 -20899.362536  14464.692119  -7161.406995    183.300705                    
V 17   4426.056282  -8703.256982 -30126.638736      -.004507                    
P 18  16828.185613   5490.421750 -19580.287099    144.028849                    
V 18   6186.149270  24843.909202  11708.419167       .019296                    
P 19   1365.399971 -18938.687815 -18428.008575   -155.235662                    
V 19  18392.320168 -14765.732171  16895.252560      -.040903                    
P 20 -14425.456842 -20426.325175   8895.307330     50.173970                    
V 20   -790.889045 -11970.097302 -28252.629115       .003016                    
P 21  26418.748777   4256.863594  -2259.524800   -153.611963                    
V 21   2537.524189   3883.281518  30525.620476      -.025566                    
P 22  13557.297603  -8878.549074 -20854.546412    147.067184                    
V 22   8434.356502  25679.861492  -5516.296292      -.004385                    
P 23  -9309.084667 -12109.796399  21710.104010    296.558932                    
V 23  19079.120241 -19909.472967  -3272.762052      -.027984                    
P 24 -18089.371348 -14649.671336 -13002.448618    401.474019                    
V 24  16557.250877   2068.776651 -24970.615589       .030907                    
P 25  16384.122587  12663.078020  16624.599459      5.831382                    
V 25   5051.047171  20596.085670 -20608.579608       .019946                    
P 26  -8929.309243  20996.311998 -13841.620334    -71.412527                    
V 26 -13279.689931  10253.688851  25595.633493      -.116419                    
P 27  10439.452727  14675.302602 -18990.035767    278.527869                    
V 27 -25168.549196  -3228.816742 -15470.967289       .036669                    
P 28 -14046.381517   4203.498362 -21627.340118     47.341093                    
V 28  -7721.701290 -27618.993893   -589.939314       .028307                    
P 29  16151.475235   4183.944384  20733.128361    218.104814                    
V 29 -17688.856306  19291.321861   9968.635965       .031026                    
P 30   6256.632989 -18520.193414  17554.610046     15.873919                    
V 30   9626.354540  21105.993086  18426.180452       .050113                    
P 31  16935.934054  -8986.272122  18671.703800    101.141203                    
V 31  22362.648998   6164.657685 -17296.413984       .059546                    
P 32  -7917.789038 -25450.532080   2964.997992   -279.956259                    
V 32   1789.609245  -3879.810584 -31059.772562      -.071030                    
EOF
